0 SL-24 DEB
1 28812U 05031D   13282.19575603  .00003708  00000-0  36495-3 0  4186
2 28812 098.1259 263.8078 0011784 228.3971 225.0838 14.92692032441346
0 SL-24 DEB
1 28812U 05031D   13284.13945556  .00003580  00000-0  35250-3 0  4197
2 28812 098.1257 265.8137 0011983 222.3126 229.6400 14.92699712441638
0 SL-24 DEB
1 28812U 05031D   13286.15093914  .00003295  00000-0  32478-3 0  4207
2 28812 098.1248 267.8901 0012287 215.0364 239.4852 14.92709869441938
0 SL-24 DEB
1 28812U 05031D   13288.16166862  .00006532  00000-0  63750-3 0  4218
2 28812 098.1244 269.9652 0012417 207.9214 245.2077 14.92725099442230
0 SL-24 DEB
1 28812U 05031D   13290.17292645  .00005511  00000-0  53861-3 0  4220
2 28812 098.1250 272.0407 0012532 199.9953 254.7081 14.92741121442535
0 SL-24 DEB
1 28812U 05031D   13292.52901992  .00004888  00000-0  47816-3 0  4233
2 28812 098.1264 274.4720 0012663 191.7320 316.6498 14.92762850442887
0 SL-24 DEB
1 28812U 05031D   13294.85852189  .00005631  00000-0  54953-3 0  4242
2 28812 098.1273 276.8765 0012863 184.4057 235.0286 14.92784887443233
